INTELSAT 902 (IS-902)   
1 26900U 01039A   26170.52657541 -.00000291  00000+0  00000+0 0  9992
2 26900   6.1228  71.7552 0004288  13.6094 321.8523  1.00271168 90717
INTELSAT 904 (IS-904)   
1 27380U 02007A   26170.10252515 -.00000234  00000+0  00000+0 0  9994
2 27380   6.9257  69.1626 0006550   6.6050 196.9688  1.00270224 51780
DIRECTV 5 (TEMPO 1)     
1 27426U 02023A   26170.35183718 -.00000065  00000+0  00000+0 0  9990
2 27426   4.8843  75.2840 0003178  14.7267 194.1142  1.00271825 88141
INTELSAT 905 (IS-905)   
1 27438U 02027A   26170.41364291  .00000085  00000+0  00000+0 0  9992
2 27438   6.7601  69.7748 0003925  22.7040 186.8523  1.00272442 51383
GALAXY 3C (G-3C)        
1 27445U 02030A   26170.39697551 -.00000160  00000+0  00000+0 0  9994
2 27445   3.7387  77.9478 0001651  29.7358 207.9989  1.00271446 46516
INTELSAT 906 (IS-906)   
1 27513U 02041A   26170.20650098  .00000005  00000+0  00000+0 0  9994
2 27513   5.8074  72.8972 0004472 359.8059 333.2266  1.00270486 87047
GALAXY 13 (HORIZONS-1)  
1 27954U 03044A   26170.48100050  .00000126  00000+0  00000+0 0  9999
2 27954   1.4248  83.8363 0002211 356.7240 210.2922  1.00272056 46597
INTELSAT 10-02          
1 28358U 04022A   26170.03727986 -.00000018  00000+0  00000+0 0  9990
2 28358   0.0178 304.3060 0000287 227.0710 108.3025  1.00270098 80572
DIRECTV 8               
1 28659U 05019A   26170.48239339  .00000000  00000+0  00000+0 0  9990
2 28659   0.0194  16.4041 0003046  78.3802 227.5368  1.00270089 77096
GALAXY 28 (G-28)        
1 28702U 05022A   26170.42610212 -.00000207  00000+0  00000+0 0  9990
2 28702   3.3039  78.9069 0002827   9.3149 305.7445  1.00270893 51995
GALAXY 16 (G-16)        
1 29236U 06023A   26170.51686868 -.00000133  00000+0  00000+0 0  9993
2 29236   0.0185 110.7700 0002550 335.1841 268.8551  1.00271526 72997
DIRECTV 9S              
1 29494U 06043A   26170.51643535 -.00000120  00000+0  00000+0 0  9991
2 29494   2.4278  80.8762 0005024  14.1024 257.4787  1.00271102 51401
GALAXY 17 (G-17)        
1 31307U 07016B   26170.51964204 -.00000213  00000+0  00000+0 0  9990
2 31307   2.9791  79.8723 0004722  19.2406 270.6879  1.00271531 69821
INTELSAT 11 (IS-11)     
1 32253U 07044B   26170.59566237 -.00000189  00000+0  00000+0 0  9996
2 32253   3.5728  78.6422 0002490  87.9610  70.9326  0.99049790 68476
HORIZONS-2              
1 32388U 07063B   26170.09418547 -.00000261  00000+0  00000+0 0  9992
2 32388   2.6079  80.6019 0003873 358.9434 147.8698  1.00273138 67833
DIRECTV 11              
1 32729U 08013A   26170.52581052 -.00000131  00000+0  00000+0 0  9993
2 32729   0.0317 210.8009 0000183 191.7067 315.3556  1.00270357 45618
GALAXY 18 (G-18)        
1 32951U 08024A   26170.49935860  .00000019  00000+0  00000+0 0  9992
2 32951   0.0198  65.6068 0002892  21.4795 237.4024  1.00270968 45879
INTELSAT 25 (IS-25)     
1 33153U 08034A   26170.55850131 -.00000160  00000+0  00000+0 0  9990
2 33153   2.7171  80.3465 0003517  60.6382  78.9475  0.99033756 65713
GALAXY 19 (G-19)        
1 33376U 08045A   26170.51730203 -.00000145  00000+0  00000+0 0  9995
2 33376   0.0302 263.5782 0002572 190.3596 263.0335  1.00271208 64925
FM-5                    
1 35493U 09034A   26170.16296111 -.00000206  00000+0  00000+0 0  9990
2 35493   0.0191 295.6892 0000683   7.2084 296.9935  1.00267719 46664
INTELSAT 14 (IS-14)     
1 36097U 09064A   26170.17116175 -.00000280  00000+0  00000+0 0  9998
2 36097   0.0124 321.8072 0002337 124.6896 197.5268  1.00271821 60622
INTELSAT 15 (IS-15)     
1 36106U 09067A   26170.12566527 -.00000191  00000+0  00000+0 0  9998
2 36106   0.0159 340.9265 0002135 107.1363 309.6753  1.00272203 41245
DIRECTV 12              
1 36131U 09075A   26169.66070437 -.00000110  00000+0  00000+0 0  9993
2 36131   0.0434 170.9001 0000385 299.0990 292.0273  1.00272181 46567
INTELSAT 16 (IS-16)     
1 36397U 10006A   26170.24252053 -.00000251  00000+0  00000+0 0  9991
2 36397   0.0097 336.1585 0001969 125.2068 177.2051  1.00272329 59672
XM-5                    
1 37185U 10053A   26170.48239339 -.00000029  00000+0  00000+0 0  9990
2 37185   0.0609 272.5969 0002783 286.1904 127.3810  1.00272316 57502
INTELSAT 17 (IS-17)     
1 37238U 10065B   26170.54962883 -.00000008  00000+0  00000+0 0  9993
2 37238   0.0059 103.6824 0002714   5.7009  62.2450  1.00272266 53270
INTELSAT 28 (IS-28)     
1 37392U 11016A   26170.17376176 -.00000232  00000+0  00000+0 0  9993
2 37392   1.8124  82.5977 0003651   6.5709 209.0684  1.00271470 53304
INTELSAT 18 (IS-18)     
1 37834U 11056A   26170.51989244  .00000047  00000+0  00000+0 0  9995
2 37834   0.0360 273.3436 0001777 175.0058 186.5447  1.00271336 53839
INTELSAT 22 (IS-22)     
1 38098U 12011A   26170.55075551 -.00000065  00000+0  00000+0 0  9992
2 38098   0.0157  41.5183 0001528  51.1915  85.4405  1.00272440  7219
INTELSAT 19 (IS-19)     
1 38356U 12030A   26170.52614292 -.00000063  00000+0  00000+0 0  9996
2 38356   0.0174  15.7282 0002977  80.9238 166.5004  1.00271602 50476
INTELSAT 20 (IS-20)     
1 38740U 12043A   26170.12237191  .00000000  00000+0  00000+0 0  9992
2 38740   0.0349  67.9275 0001611 107.7521 204.2199  1.00269776 50761
